[{"OBJECT_NAME":"M2 PATHFINDER","OBJECT_ID":"2020-037E","EPOCH":"2026-03-09T11:30:45.742176","MEAN_MOTION":15.04175941,"ECCENTRICITY":0.00124059,"INCLINATION":97.8158,"RA_OF_ASC_NODE":258.5983,"ARG_OF_PERICENTER":127.8041,"MEAN_ANOMALY":232.431,"EPHEMERIS_TYPE":0,"CLASSIFICATION_TYPE":"U","NORAD_CAT_ID":45727,"ELEMENT_SET_NO":999,"REV_AT_EPOCH":31050,"BSTAR":0.00032591881,"MEAN_MOTION_DOT":4.468e-5,"MEAN_MOTION_DDOT":0},{"OBJECT_NAME":"STARLINK-35248","OBJECT_ID":"2025-207G","EPOCH":"2026-03-09T18:08:31.960608","MEAN_MOTION":15.05641646,"ECCENTRICITY":0.00013051,"INCLINATION":97.6017,"RA_OF_ASC_NODE":138.7639,"ARG_OF_PERICENTER":89.837,"MEAN_ANOMALY":270.3006,"EPHEMERIS_TYPE":0,"CLASSIFICATION_TYPE":"U","NORAD_CAT_ID":65598,"ELEMENT_SET_NO":999,"REV_AT_EPOCH":2827,"BSTAR":0.00054177071,"MEAN_MOTION_DOT":7.763e-5,"MEAN_MOTION_DDOT":0}]
