M2 PATHFINDER           
1 45727U 20037E   26068.47969609  .00004468  00000+0  32592-3 0  9994
2 45727  97.8158 258.5983 0012405 127.8041 232.4310 15.04175941310501
STARLINK-35248          
1 65598U 25207G   26068.75592547  .00007763  00000+0  54177-3 0  9994
2 65598  97.6017 138.7639 0001305  89.8370 270.3006 15.05641646 28271
